SHIYAN-1 (SY-1)         
1 28220U 04012A   26068.73650539  .00016393  00000+0  54854-3 0  9991
2 28220  97.8764 140.5238 0005873  23.6952 336.4557 15.31043463195862
STARLINK-35860          
1 66881U 25283D   26068.20170508  .00031095  00000+0  10574-2 0  9990
2 66881  53.1627  26.1336 0001027 104.7371 255.3743 15.30206831 15777
